{"type": "FeatureCollection", "features": [ {"type": "Feature", "properties": {"norad_id": 40697, "name": "SENTINEL-2A", "group": "resource", "lat": 66.15865014244334, "lon": 29.10088623125885, "alt_km": 781.8323826234264, "timestamp": "2025-12-02T08:59:32.376820+00:00", "meta": {"OBJECT_NAME": "SENTINEL-2A", "OBJECT_ID": "2015-028A", "EPOCH": "2025-12-01T19:15:02.496672", "MEAN_MOTION": 14.30820055, "ECCENTRICITY": 0.0001043, "INCLINATION": 98.5707, "RA_OF_ASC_NODE": 48.4904, "ARG_OF_PERICENTER": 93.5597, "MEAN_ANOMALY": 266.5705, "EPHEMERIS_TYPE": 0, "CLASSIFICATION_TYPE": "U", "NORAD_CAT_ID": 40697, "ELEMENT_SET_NO": 999, "REV_AT_EPOCH": 54550, "BSTAR": 8.2928e-05, "MEAN_MOTION_DOT": 1.74e-06, "MEAN_MOTION_DDOT": 0}, "tle": {"line1": "1 40697U 15028A   25335.80211223  .00000174  00000+0  82928-4 0  9993", "line2": "2 40697  98.5707  48.4904 0001043  93.5597 266.5705 14.30820055545507"}}, "geometry": {"type": "Point", "coordinates": [29.10088623125885, 66.15865014244334]}}, {"type": "Feature", "properties": {"norad_id": 40701, "name": "GAOFEN-8", "group": "resource", "lat": 69.54079279095372, "lon": 132.77611318949738, "alt_km": 447.1251313728935, "timestamp": "2025-12-02T08:59:32.376830+00:00", "meta": {"OBJECT_NAME": "GAOFEN-8", "OBJECT_ID": "2015-030A", "EPOCH": "2025-12-01T20:11:32.584704", "MEAN_MOTION": 15.37974341, "ECCENTRICITY": 0.0011135, "INCLINATION": 97.691, "RA_OF_ASC_NODE": 153.4551, "ARG_OF_PERICENTER": 176.7658, "MEAN_ANOMALY": 183.366, "EPHEMERIS_TYPE": 0, "CLASSIFICATION_TYPE": "U", "NORAD_CAT_ID": 40701, "ELEMENT_SET_NO": 999, "REV_AT_EPOCH": 58103, "BSTAR": 0.00051961, "MEAN_MOTION_DOT": 0.00019385, "MEAN_MOTION_DDOT": 0}, "tle": {"line1": "1 40701U 15030A   25335.84134936  .00019385  00000+0  51961-3 0  9997", "line2": "2 40701  97.6910 153.4551 0011135 176.7658 183.3660 15.37974341581039"}}, "geometry": {"type": "Point", "coordinates": [132.77611318949738, 69.54079279095372]}}, {"type": "Feature", "properties": {"norad_id": 40718, "name": "CARBONITE 1 (CBNT-1)", "group": "resource", "lat": -81.6080059428995, "lon": -136.63243091582626, "alt_km": 623.0120140104373, "timestamp": "2025-12-02T08:59:32.376840+00:00", "meta": {"OBJECT_NAME": "CARBONITE 1 (CBNT-1)", "OBJECT_ID": "2015-032D", "EPOCH": "2025-12-02T04:31:23.509056", "MEAN_MOTION": 14.82662005, "ECCENTRICITY": 0.0013764, "INCLINATION": 97.6402, "RA_OF_ASC_NODE": 157.6974, "ARG_OF_PERICENTER": 217.2604, "MEAN_ANOMALY": 142.7656, "EPHEMERIS_TYPE": 0, "CLASSIFICATION_TYPE": "U", "NORAD_CAT_ID": 40718, "ELEMENT_SET_NO": 999, "REV_AT_EPOCH": 56014, "BSTAR": 0.00040175, "MEAN_MOTION_DOT": 3.193e-05, "MEAN_MOTION_DDOT": 0}, "tle": {"line1": "1 40718U 15032D   25336.18846654  .00003193  00000+0  40175-3 0  9997", "line2": "2 40718  97.6402 157.6974 0013764 217.2604 142.7656 14.82662005560143"}}, "geometry": {"type": "Point", "coordinates": [-136.63243091582626, -81.6080059428995]}}, {"type": "Feature", "properties": {"norad_id": 40878, "name": "YAOGAN-27", "group": "resource", "lat": 58.29993450819903, "lon": -50.309471636675546, "alt_km": 1195.8403929245023, "timestamp": "2025-12-02T08:59:32.376851+00:00", "meta": {"OBJECT_NAME": "YAOGAN-27", "OBJECT_ID": "2015-040A", "EPOCH": "2025-12-02T05:02:26.382912", "MEAN_MOTION": 13.16059608, "ECCENTRICITY": 0.0007762, "INCLINATION": 100.1003, "RA_OF_ASC_NODE": 326.3067, "ARG_OF_PERICENTER": 312.6516, "MEAN_ANOMALY": 47.3943, "EPHEMERIS_TYPE": 0, "CLASSIFICATION_TYPE": "U", "NORAD_CAT_ID": 40878, "ELEMENT_SET_NO": 999, "REV_AT_EPOCH": 49175, "BSTAR": 6.7735e-05, "MEAN_MOTION_DOT": -1.7e-07, "MEAN_MOTION_DDOT": 0}, "tle": {"line1": "1 40878U 15040A   25336.21002758 -.00000017  00000+0  67735-4 0  9991", "line2": "2 40878 100.1003 326.3067 0007762 312.6516  47.3943 13.16059608491752"}}, "geometry": {"type": "Point", "coordinates": [-50.309471636675546, 58.29993450819903]}}, {"type": "Feature", "properties": {"norad_id": 40894, "name": "GAOFEN-9 01", "group": "resource", "lat": -25.546688647790383, "lon": -167.90872082997413, "alt_km": 642.7346270215712, "timestamp": "2025-12-02T08:59:32.376861+00:00", "meta": {"OBJECT_NAME": "GAOFEN-9 01", "OBJECT_ID": "2015-047A", "EPOCH": "2025-12-02T04:49:46.711776", "MEAN_MOTION": 14.82378086, "ECCENTRICITY": 0.0028977, "INCLINATION": 97.6557, "RA_OF_ASC_NODE": 15.6115, "ARG_OF_PERICENTER": 67.473, "MEAN_ANOMALY": 292.9546, "EPHEMERIS_TYPE": 0, "CLASSIFICATION_TYPE": "U", "NORAD_CAT_ID": 40894, "ELEMENT_SET_NO": 999, "REV_AT_EPOCH": 55100, "BSTAR": 0.00018294, "MEAN_MOTION_DOT": 1.424e-05, "MEAN_MOTION_DDOT": 0}, "tle": {"line1": "1 40894U 15047A   25336.20123509  .00001424  00000+0  18294-3 0  9990", "line2": "2 40894  97.6557  15.6115 0028977  67.4730 292.9546 14.82378086551000"}}, "geometry": {"type": "Point", "coordinates": [-167.90872082997413, -25.546688647790383]}}, {"type": "Feature", "properties": {"norad_id": 41026, "name": "YAOGAN-28", "group": "resource", "lat": -58.61400840640243, "lon": -77.6329438425742, "alt_km": 499.14539778822655, "timestamp": "2025-12-02T08:59:32.376871+00:00", "meta": {"OBJECT_NAME": "YAOGAN-28", "OBJECT_ID": "2015-064A", "EPOCH": "2025-12-01T20:54:56.989152", "MEAN_MOTION": 15.24054741, "ECCENTRICITY": 0.0011813, "INCLINATION": 97.2793, "RA_OF_ASC_NODE": 113.9731, "ARG_OF_PERICENTER": 162.4208, "MEAN_ANOMALY": 197.7441, "EPHEMERIS_TYPE": 0, "CLASSIFICATION_TYPE": "U", "NORAD_CAT_ID": 41026, "ELEMENT_SET_NO": 999, "REV_AT_EPOCH": 56059, "BSTAR": 0.0004317, "MEAN_MOTION_DOT": 0.00010429, "MEAN_MOTION_DDOT": 0}, "tle": {"line1": "1 41026U 15064A   25335.87149293  .00010429  00000+0  43170-3 0  9993", "line2": "2 41026  97.2793 113.9731 0011813 162.4208 197.7441 15.24054741560595"}}, "geometry": {"type": "Point", "coordinates": [-77.6329438425742, -58.61400840640243]}}, {"type": "Feature", "properties": {"norad_id": 41038, "name": "YAOGAN-29", "group": "resource", "lat": 73.34874075537849, "lon": -28.624606793341616, "alt_km": 613.0156651971447, "timestamp": "2025-12-02T08:59:32.376881+00:00", "meta": {"OBJECT_NAME": "YAOGAN-29", "OBJECT_ID": "2015-069A", "EPOCH": "2025-12-01T21:19:02.767872", "MEAN_MOTION": 14.82862445, "ECCENTRICITY": 8.75e-05, "INCLINATION": 98.023, "RA_OF_ASC_NODE": 359.0246, "ARG_OF_PERICENTER": 11.6665, "MEAN_ANOMALY": 348.4568, "EPHEMERIS_TYPE": 0, "CLASSIFICATION_TYPE": "U", "NORAD_CAT_ID": 41038, "ELEMENT_SET_NO": 999, "REV_AT_EPOCH": 54138, "BSTAR": 7.2946e-05, "MEAN_MOTION_DOT": 5.37e-06, "MEAN_MOTION_DDOT": 0}, "tle": {"line1": "1 41038U 15069A   25335.88822648  .00000537  00000+0  72946-4 0  9997", "line2": "2 41038  98.0230 359.0246 0000875  11.6665 348.4568 14.82862445541387"}}, "geometry": {"type": "Point", "coordinates": [-28.624606793341616, 73.34874075537849]}}, {"type": "Feature", "properties": {"norad_id": 41167, "name": "KENT RIDGE 1", "group": "resource", "lat": 10.609800586147909, "lon": 63.57459245607044, "alt_km": 502.26619194619434, "timestamp": "2025-12-02T08:59:32.376892+00:00", "meta": {"OBJECT_NAME": "KENT RIDGE 1", "OBJECT_ID": "2015-077B", "EPOCH": "2025-12-02T05:15:28.609632", "MEAN_MOTION": 15.21503241, "ECCENTRICITY": 0.0008704, "INCLINATION": 14.9806, "RA_OF_ASC_NODE": 289.1971, "ARG_OF_PERICENTER": 341.7782, "MEAN_ANOMALY": 18.2228, "EPHEMERIS_TYPE": 0, "CLASSIFICATION_TYPE": "U", "NORAD_CAT_ID": 41167, "ELEMENT_SET_NO": 999, "REV_AT_EPOCH": 55103, "BSTAR": 0.00021781, "MEAN_MOTION_DOT": 5.81e-05, "MEAN_MOTION_DDOT": 0}, "tle": {"line1": "1 41167U 15077B   25336.21908113  .00005810  00000+0  21781-3 0  9998", "line2": "2 41167  14.9806 289.1971 0008704 341.7782  18.2228 15.21503241551038"}}, "geometry": {"type": "Point", "coordinates": [63.57459245607044, 10.609800586147909]}}, {"type": "Feature", "properties": {"norad_id": 41194, "name": "GAOFEN-4", "group": "resource", "lat": -0.11014795974609455, "lon": -47.981647306453986, "alt_km": 35795.10418099938, "timestamp": "2025-12-02T08:59:32.376904+00:00", "meta": {"OBJECT_NAME": "GAOFEN-4", "OBJECT_ID": "2015-083A", "EPOCH": "2025-12-02T01:52:21.643392", "MEAN_MOTION": 1.00267088, "ECCENTRICITY": 0.0003519, "INCLINATION": 0.1407, "RA_OF_ASC_NODE": 80.5688, "ARG_OF_PERICENTER": 110.0556, "MEAN_ANOMALY": 14.3058, "EPHEMERIS_TYPE": 0, "CLASSIFICATION_TYPE": "U", "NORAD_CAT_ID": 41194, "ELEMENT_SET_NO": 999, "REV_AT_EPOCH": 3655, "BSTAR": 0, "MEAN_MOTION_DOT": -3.13e-06, "MEAN_MOTION_DDOT": 0}, "tle": {"line1": "1 41194U 15083A   25336.07802828 -.00000313  00000+0  00000+0 0  9996", "line2": "2 41194   0.1407  80.5688 0003519 110.0556  14.3058  1.00267088 36556"}}, "geometry": {"type": "Point", "coordinates": [-47.981647306453986, -0.11014795974609455]}}, {"type": "Feature", "properties": {"norad_id": 41240, "name": "JASON-3", "group": "resource", "lat": 27.66048832604452, "lon": -13.861107874685134, "alt_km": 1311.5969479589194, "timestamp": "2025-12-02T08:59:32.376915+00:00", "meta": {"OBJECT_NAME": "JASON-3", "OBJECT_ID": "2016-002A", "EPOCH": "2025-12-02T02:37:34.783104", "MEAN_MOTION": 12.8762592, "ECCENTRICITY": 0.0007153, "INCLINATION": 66.0392, "RA_OF_ASC_NODE": 180.1737, "ARG_OF_PERICENTER": 270.2437, "MEAN_ANOMALY": 89.7762, "EPHEMERIS_TYPE": 0, "CLASSIFICATION_TYPE": "U", "NORAD_CAT_ID": 41240, "ELEMENT_SET_NO": 999, "REV_AT_EPOCH": 46187, "BSTAR": 0.00025397, "MEAN_MOTION_DOT": 2e-08, "MEAN_MOTION_DDOT": 0}, "tle": {"line1": "1 41240U 16002A   25336.10943036  .00000002  00000+0  25397-3 0  9995", "line2": "2 41240  66.0392 180.1737 0007153 270.2437  89.7762 12.87625920461874"}}, "geometry": {"type": "Point", "coordinates": [-13.861107874685134, 27.66048832604452]}}]}